IRIDIUM 7               
1 24793U 97020B   24165.53324065  .00000610  00000+0  20655-3 0  9996
2 24793  86.3955 331.3633 0001875  91.8911 268.2500 14.35251122419222
IRIDIUM 5               
1 24795U 97020D   24165.51612487  .00004029  00000+0  38020-3 0  9997
2 24795  86.3920 252.7238 0121750  16.5663 343.9485 14.87938470430520
IRIDIUM 4               
1 24796U 97020E   24165.54244635  .00000634  00000+0  21072-3 0  9994
2 24796  86.3951 328.4811 0002048  87.4638 272.6794 14.36177093419573
IRIDIUM 914             
1 24836U 97030A   24165.51336663  .00000712  00000+0  21985-3 0  9990
2 24836  86.3934 338.1825 0002733  49.2136 310.9300 14.40037843554057
IRIDIUM 16              
1 24841U 97030F   24165.62302308  .00000611  00000+0  19595-3 0  9999
2 24841  86.4041   0.1021 0002534 142.0709 218.0668 14.37928854414028
IRIDIUM 911             
1 24842U 97030G   24165.57125983  .00000787  00000+0  21277-3 0  9990
2 24842  86.4465 359.2530 0012290 242.8262 117.1688 14.46573649421774
IRIDIUM 17              
1 24870U 97034B   24165.58990230  .00000578  00000+0  18853-3 0  9995
2 24870  86.3970  29.7054 0003415 108.9806 251.1761 14.37024185410630
IRIDIUM 920             
1 24871U 97034C   24165.60782163  .00000558  00000+0  16839-3 0  9993
2 24871  86.3982   9.7891 0010320 208.7821 151.2810 14.40739572413499
